{"type":"FeatureCollection","features":[{"type":"Feature","geometry":{"type":"MultiLineString","coordinates":[[[134.1722,34.48861],[134.17458,34.48761],[134.17497,34.48765],[134.17552,34.48805],[134.17614,34.48744],[134.17665,34.48705],[134.17749,34.48655],[134.17915,34.48576],[134.1801,34.48501],[134.18041,34.48493],[134.18185,34.48492],[134.18235,34.48479],[134.18338,34.48436],[134.18525,34.48332],[134.18648,34.48475],[134.18704,34.48597],[134.1853,34.48729],[134.18492,34.48774],[134.18476,34.48802],[134.18335,34.48812],[134.18208,34.48835],[134.18018,34.48891],[134.17936,34.48949],[134.17886,34.48998],[134.17857,34.49028],[134.17817,34.49093],[134.17594,34.49276],[134.17475,34.49325],[134.17217,34.49395],[134.17179,34.49418],[134.17152,34.49448],[134.17046,34.49608],[134.16966,34.49704],[134.1692,34.49746],[134.16914,34.49785],[134.1692,34.49842],[134.16918,34.49876],[134.16892,34.49917],[134.16824,34.49965],[134.16813,34.49978],[134.16805,34.50003],[134.16811,34.50058],[134.16801,34.50079],[134.16782,34.50091],[134.16753,34.50094],[134.16639,34.50078],[134.16615,34.50085],[134.16589,34.50111],[134.16567,34.50185],[134.16566,34.502],[134.16572,34.50215],[134.16584,34.50225],[134.16617,34.50234],[134.16709,34.50279],[134.16727,34.50292],[134.16737,34.50311],[134.16737,34.50325],[134.16723,34.50345],[134.16667,34.50369],[134.16657,34.50378],[134.16655,34.50388],[134.16662,34.50417],[134.1669,34.50455],[134.16692,34.50475],[134.16656,34.50563],[134.16642,34.50612],[134.16631,34.50725],[134.16633,34.50813],[134.1666,34.51062],[134.16625,34.51244],[134.16635,34.51276],[134.16692,34.51351],[134.16745,34.5144],[134.1675,34.5146],[134.16749,34.51545],[134.16747,34.51578],[134.16726,34.51626],[134.16615,34.51788],[134.16583,34.51827],[134.16552,34.51856],[134.16546,34.51904],[134.16573,34.51965],[134.16614,34.52017],[134.16666,34.52061],[134.16711,34.52085],[134.16746,34.52098],[134.16764,34.52116],[134.16767,34.52135],[134.16731,34.52181],[134.16731,34.52208],[134.16742,34.5222],[134.16787,34.52219],[134.17045,34.52172],[134.17113,34.52164],[134.17136,34.52168],[134.17154,34.52178],[134.17261,34.52276],[134.17286,34.5228],[134.17311,34.52272],[134.17352,34.52244],[134.17409,34.5217],[134.17504,34.52075],[134.17635,34.51958],[134.17773,34.51825],[134.17859,34.51758],[134.17994,34.51679],[134.18082,34.5164],[134.18213,34.51603],[134.18384,34.5157],[134.18432,34.51563],[134.18512,34.51564],[134.18605,34.51545],[134.18631,34.51544],[134.1866,34.51555],[134.1873,34.51595],[134.18834,34.51633],[134.18876,34.51655],[134.189,34.51674],[134.18908,34.51695],[134.18887,34.51788],[134.18898,34.51832],[134.18888,34.51878],[134.1889,34.51889],[134.18903,34.51903],[134.18919,34.51908],[134.18954,34.51907],[134.19036,34.51887],[134.19171,34.5187],[134.19283,34.51879],[134.19371,34.51858],[134.194,34.51849],[134.19433,34.51829],[134.19499,34.51758],[134.19524,34.51737],[134.19548,34.51729],[134.1957,34.5173],[134.19593,34.51741],[134.1961,34.51768],[134.19597,34.51835],[134.19603,34.51853],[134.19637,34.51871],[134.19699,34.51895],[134.19717,34.51896],[134.19787,34.51878],[134.19837,34.51881],[134.20012,34.51946],[134.20037,34.51962],[134.20057,34.51967],[134.2009,34.51963],[134.20126,34.51935],[134.20161,34.51926],[134.20203,34.51898],[134.20228,34.51896],[134.20248,34.51911],[134.20268,34.51958],[134.2029,34.51969],[134.20736,34.52077],[134.20769,34.52079],[134.20829,34.5207],[134.20866,34.52074],[134.20992,34.5213],[134.21096,34.52211],[134.21176,34.52261],[134.21227,34.52265],[134.21252,34.5226],[134.21289,34.52245],[134.21326,34.52244],[134.21409,34.52258],[134.21472,34.52279],[134.21509,34.52315],[134.21622,34.52368],[134.21674,34.52429],[134.21745,34.52466],[134.2182,34.52536],[134.21852,34.52556],[134.22002,34.52579],[134.22049,34.52593],[134.22079,34.52587],[134.22141,34.52558],[134.22157,34.52558],[134.22171,34.52574],[134.22195,34.52632],[134.22193,34.52705],[134.22207,34.52736],[134.22219,34.52739],[134.22234,34.52751],[134.22398,34.5282],[134.22428,34.52825],[134.22473,34.52825],[134.2254,34.52813],[134.22601,34.52828],[134.2264,34.52823],[134.22712,34.52794],[134.22768,34.52785],[134.22779,34.52779],[134.22787,34.5277],[134.22789,34.52752],[134.22779,34.52726],[134.22778,34.52707],[134.22785,34.52694],[134.22807,34.52678],[134.22843,34.52669],[134.22978,34.5267],[134.23031,34.52665],[134.23071,34.52675],[134.23206,34.5274],[134.23338,34.52844],[134.23473,34.52886],[134.23578,34.52904],[134.23847,34.52924],[134.23871,34.52929],[134.2401,34.52996],[134.24032,34.53014],[134.24228,34.53324],[134.2426,34.53417],[134.24354,34.53523],[134.24394,34.53592],[134.24466,34.53636],[134.24559,34.53729],[134.24639,34.53774],[134.2482,34.53895],[134.2493,34.53944],[134.24993,34.53989],[134.25051,34.54016],[134.25144,34.5404],[134.25238,34.5405],[134.25284,34.54063],[134.25329,34.54094],[134.25381,34.54138],[134.2543,34.54205],[134.25456,34.54225],[134.25489,34.54226],[134.2554,34.54196],[134.25576,34.54187],[134.25618,34.54193],[134.25685,34.54223],[134.25702,34.54235],[134.25711,34.54251],[134.2571,34.54304],[134.25716,34.54323],[134.2574,34.5436],[134.25745,34.54422],[134.25787,34.54493],[134.2583,34.54529],[134.25876,34.5454],[134.25898,34.5455],[134.2596,34.54613],[134.25996,34.54641],[134.26042,34.54666],[134.26076,34.54678],[134.26138,34.5469],[134.26209,34.54696],[134.26249,34.54696],[134.26353,34.54686],[134.26394,34.54689],[134.265,34.54729],[134.26591,34.54781],[134.26615,34.54786],[134.26777,34.5475],[134.26811,34.54746],[134.26853,34.5475],[134.269,34.54765],[134.26938,34.54768],[134.26979,34.54764],[134.27159,34.54708],[134.27217,34.54648],[134.27249,34.54633],[134.2729,34.54631],[134.27352,34.54643],[134.27471,34.54641],[134.27566,34.54655],[134.27591,34.54655],[134.27652,34.54629],[134.27716,34.54622],[134.27819,34.54599],[134.27885,34.54595],[134.27955,34.54569],[134.27987,34.54567],[134.28167,34.54597],[134.2827,34.54589],[134.28363,34.54572],[134.284,34.54571],[134.28442,34.5459],[134.28478,34.54631],[134.28494,34.54641],[134.28605,34.54659],[134.28638,34.54654],[134.28687,34.54635],[134.28783,34.54622],[134.28914,34.54638],[134.29026,34.54665],[134.29103,34.54668],[134.2913,34.54662],[134.29142,34.54654],[134.29163,34.54627],[134.29178,34.54616],[134.29196,34.54612],[134.29266,34.54613],[134.29372,34.54634],[134.29467,34.54634],[134.29527,34.54642],[134.297,34.54697],[134.29818,34.54701],[134.29921,34.54735],[134.30012,34.54746],[134.303,34.54726],[134.30491,34.54686],[134.30537,34.54687],[134.30589,34.547],[134.30646,34.54734],[134.30649,34.54748],[134.30629,34.54789],[134.30625,34.54814],[134.30632,34.54836],[134.30647,34.54854],[134.30711,34.54886],[134.30793,34.54901],[134.30814,34.54914],[134.30821,34.54926],[134.30822,34.54955],[134.30808,34.54979],[134.30793,34.54989],[134.30735,34.55012],[134.30716,34.55029],[134.30706,34.55049],[134.30683,34.55151],[134.30696,34.55176],[134.30716,34.55186],[134.30773,34.55201],[134.30795,34.55215],[134.30812,34.55234],[134.30824,34.55268],[134.3084,34.5538],[134.30856,34.55411],[134.30878,34.55433],[134.3131,34.55724],[134.31368,34.55758],[134.31418,34.55778],[134.32009,34.55946],[134.32064,34.55981],[134.32168,34.56067],[134.32203,34.56082],[134.32318,34.56108],[134.32363,34.56123],[134.324,34.56144],[134.32505,34.56223],[134.32536,34.56238],[134.32602,34.5625],[134.32645,34.56246],[134.32709,34.56231],[134.32731,34.56232],[134.32824,34.56276],[134.32916,34.56291],[134.32967,34.56308],[134.33001,34.56327],[134.33033,34.56365],[134.33049,34.56374],[134.33064,34.56375],[134.33087,34.56366],[134.33116,34.56325],[134.33132,34.56267],[134.3312,34.56186],[134.33122,34.56171],[134.33137,34.56149],[134.33162,34.56135],[134.33189,34.56127],[134.33215,34.56129],[134.3328,34.56163],[134.33332,34.56182],[134.33387,34.56209],[134.33401,34.56211],[134.33427,34.56203],[134.33447,34.56189],[134.3346,34.56171],[134.33477,34.56125],[134.33536,34.56096],[134.3358,34.56059],[134.33608,34.56055],[134.3365,34.56061],[134.3374,34.56047],[134.33839,34.56041],[134.33877,34.56051],[134.33903,34.56078],[134.33938,34.5613],[134.33969,34.56147],[134.3411,34.56167],[134.34143,34.56169],[134.34224,34.56164],[134.34253,34.56169],[134.3437,34.5623],[134.34617,34.56308],[134.34758,34.56371],[134.3479,34.56375],[134.34824,34.56371],[134.34997,34.56317],[134.35023,34.56299],[134.35026,34.5628],[134.35002,34.5623],[134.35002,34.56193],[134.34988,34.56173],[134.3496,34.56154],[134.3493,34.56152],[134.34899,34.56159],[134.34822,34.5618],[134.34771,34.56208],[134.34751,34.56209],[134.34714,34.56189],[134.34694,34.56183],[134.34648,34.56187],[134.34619,34.56184],[134.34561,34.56161],[134.34534,34.56144],[134.34504,34.56105],[134.34496,34.56087],[134.345,34.56064],[134.34538,34.55996],[134.34544,34.55975],[134.34528,34.55928],[134.34531,34.55875],[134.34527,34.55861],[134.34518,34.5585],[134.345,34.55841],[134.34367,34.55798],[134.34326,34.55772],[134.34304,34.55747],[134.34304,34.55724],[134.34312,34.55711],[134.34367,34.55647],[134.34393,34.55631],[134.3461,34.55591],[134.34706,34.55555],[134.34781,34.55538],[134.34826,34.55543],[134.34881,34.55567],[134.34905,34.55588],[134.34937,34.55632],[134.3497,34.5565],[134.35064,34.55652],[134.35146,34.55663],[134.35169,34.55656],[134.35187,34.55633],[134.35182,34.55607],[134.35137,34.55557],[134.35118,34.55494],[134.35068,34.55436],[134.35017,34.55344],[134.34992,34.55317],[134.34946,34.55288],[134.34938,34.55267],[134.34936,34.5523],[134.34925,34.55215],[134.34902,34.55202],[134.34764,34.55171],[134.34737,34.55155],[134.34705,34.55145],[134.34675,34.5511],[134.34634,34.55085],[134.34628,34.55072],[134.3463,34.55055],[134.34725,34.54878],[134.34744,34.54801],[134.34746,34.54784],[134.3474,34.54758],[134.34715,34.54729],[134.34643,34.54687],[134.34594,34.54632],[134.34564,34.54608],[134.34518,34.54592],[134.34437,34.54584],[134.34416,34.54578],[134.34377,34.54555],[134.34352,34.54532],[134.34342,34.54515],[134.34329,34.54465],[134.3436,34.54283],[134.34432,34.54121],[134.34467,34.54062],[134.3449,34.54041],[134.34516,34.54026],[134.34628,34.53987],[134.34646,34.53976],[134.34668,34.53953],[134.34679,34.53929],[134.34688,34.5383],[134.34694,34.53813],[134.34716,34.53785],[134.34741,34.5377],[134.34786,34.53756],[134.34826,34.5375],[134.34859,34.53765],[134.349,34.53799],[134.34924,34.53808],[134.34951,34.53805],[134.34966,34.53798],[134.34981,34.53783],[134.35006,34.53719],[134.35017,34.5371],[134.35033,34.53705],[134.35058,34.5371],[134.35138,34.53745],[134.35189,34.53759],[134.35251,34.53766],[134.35305,34.53786],[134.35339,34.53788],[134.35348,34.53784],[134.35356,34.53778],[134.35374,34.53746],[134.35399,34.53735],[134.3543,34.53738],[134.35456,34.53758],[134.35468,34.53757],[134.35475,34.53749],[134.35496,34.53692],[134.35488,34.53676],[134.35462,34.53651],[134.35456,34.53584],[134.35461,34.53555],[134.35479,34.53546],[134.35544,34.53547],[134.35609,34.53528],[134.35649,34.5349],[134.35653,34.53479],[134.35649,34.53448],[134.35667,34.53406],[134.35661,34.53342],[134.35675,34.53289],[134.35684,34.53205],[134.35664,34.53179],[134.35562,34.53133],[134.35561,34.53118],[134.35579,34.53111],[134.3562,34.5311],[134.35645,34.531],[134.35655,34.531],[134.35716,34.53116],[134.35737,34.53113],[134.35752,34.53116],[134.35803,34.5315],[134.35817,34.53146],[134.3582,34.53136],[134.35811,34.53128],[134.35778,34.53118],[134.35751,34.53097],[134.35697,34.53086],[134.35677,34.5306],[134.35676,34.53044],[134.35697,34.53015],[134.35703,34.52937],[134.35672,34.52773],[134.35633,34.5269],[134.3563,34.52664],[134.35637,34.52611],[134.3563,34.52587],[134.35617,34.52572],[134.35564,34.52532],[134.35532,34.52484],[134.35514,34.5247],[134.35485,34.52458],[134.35423,34.52449],[134.354,34.52439],[134.35367,34.52396],[134.35355,34.52363],[134.35354,34.52318],[134.35415,34.52128],[134.35466,34.52037],[134.35497,34.51891],[134.355,34.51853],[134.3549,34.51705],[134.35458,34.51548],[134.35458,34.51504],[134.35468,34.51441],[134.3546,34.51399],[134.35365,34.5121],[134.35311,34.5104],[134.35288,34.51018],[134.3527,34.51009],[134.35241,34.51003],[134.35226,34.50988],[134.35227,34.50973],[134.3525,34.50927],[134.35248,34.509],[134.35174,34.50845],[134.3512,34.50786],[134.35037,34.50754],[134.34981,34.50691],[134.34952,34.5067],[134.34919,34.50636],[134.34907,34.5061],[134.349,34.50551],[134.34863,34.50505],[134.34827,34.50441],[134.34798,34.50379],[134.34785,34.5033],[134.34745,34.50246],[134.34716,34.50118],[134.34712,34.50072],[134.34717,34.50038],[134.34733,34.50002],[134.34762,34.49961],[134.34795,34.49936],[134.34838,34.49918],[134.3495,34.49888],[134.35008,34.49834],[134.35026,34.49807],[134.35031,34.49777],[134.35003,34.49653],[134.35005,34.49621],[134.35012,34.49606],[134.35049,34.49585],[134.35055,34.49565],[134.35027,34.49517],[134.35033,34.49489],[134.3503,34.49477],[134.35,34.49454],[134.34976,34.49388],[134.35032,34.49328],[134.35038,34.49313],[134.35033,34.49284],[134.35013,34.49252],[134.34978,34.49222],[134.34929,34.49189],[134.34885,34.4915],[134.34851,34.49137],[134.34778,34.49124],[134.34735,34.49103],[134.34707,34.49101],[134.34667,34.49113],[134.34651,34.49128],[134.34631,34.49164],[134.34617,34.49173],[134.34595,34.49175],[134.3452,34.4916],[134.34461,34.49142],[134.344,34.49153],[134.34381,34.49152],[134.34313,34.49125],[134.34242,34.49114],[134.34145,34.49066],[134.3414,34.49053],[134.34163,34.49],[134.34166,34.48953],[134.34176,34.48906],[134.342,34.48861],[134.34196,34.48825],[134.34221,34.48759],[134.34219,34.48739],[134.34202,34.4871],[134.34201,34.48695],[134.34217,34.48678],[134.34267,34.48661],[134.34277,34.48642],[134.34263,34.48622],[134.34173,34.48603],[134.34152,34.48592],[134.34132,34.48574],[134.34112,34.48584],[134.34065,34.48571],[134.34022,34.4854],[134.34009,34.48514],[134.34014,34.48488],[134.34037,34.48466],[134.34065,34.48459],[134.34139,34.4846],[134.34155,34.48454],[134.34162,34.48442],[134.34148,34.48406],[134.34148,34.48394],[134.34159,34.48383],[134.34183,34.48373],[134.34189,34.4836],[134.34184,34.48351],[134.3412,34.48312],[134.34101,34.48293],[134.34103,34.4827],[134.34127,34.48245],[134.34153,34.48181],[134.34148,34.48155],[134.34109,34.48113],[134.34108,34.48091],[134.34073,34.4806],[134.34073,34.48039],[134.34105,34.48012],[134.3411,34.47995],[134.34105,34.47985],[134.34094,34.47978],[134.34026,34.47979],[134.34011,34.47973],[134.34011,34.47932],[134.33967,34.47893],[134.34015,34.47862],[134.34026,34.47862],[134.34059,34.47874],[134.34087,34.47876],[134.34165,34.47871],[134.34203,34.47875],[134.34222,34.47865],[134.34291,34.47799],[134.3431,34.47796],[134.3435,34.47801],[134.34365,34.47792],[134.34383,34.47775],[134.34387,34.47764],[134.34378,34.47732],[134.3438,34.47724],[134.3439,34.47717],[134.34418,34.47715],[134.34443,34.47683],[134.34461,34.47622],[134.34461,34.47588],[134.34475,34.47583],[134.34505,34.47599],[134.34516,34.47598],[134.34537,34.47581],[134.34561,34.47583],[134.34596,34.47596],[134.34608,34.47592],[134.34604,34.47554],[134.34631,34.47535],[134.34649,34.47481],[134.34649,34.47445],[134.34665,34.4742],[134.34651,34.474],[134.34625,34.47382],[134.34622,34.47362],[134.34673,34.47281],[134.34712,34.47258],[134.34782,34.47258],[134.34853,34.4721],[134.34891,34.47202],[134.34899,34.47182],[134.34889,34.47136],[134.34898,34.4711],[134.34917,34.47081],[134.34966,34.4704],[134.35001,34.47033],[134.35026,34.47042],[134.35064,34.47065],[134.35082,34.47067],[134.35101,34.4706],[134.35109,34.47051],[134.35111,34.47039],[134.35101,34.47006],[134.35082,34.46985],[134.35032,34.46963],[134.34963,34.46961],[134.3492,34.46946],[134.34889,34.46924],[134.34852,34.46889],[134.34835,34.46865],[134.34814,34.46848],[134.34814,34.46835],[134.34821,34.46824],[134.34872,34.468],[134.34894,34.46784],[134.34904,34.46751],[134.34912,34.46744],[134.34942,34.46733],[134.34961,34.46693],[134.3496,34.46684],[134.3495,34.46675],[134.34919,34.46668],[134.34903,34.4667],[134.34867,34.46691],[134.34853,34.46694],[134.34837,34.46692],[134.34824,34.46679],[134.34834,34.46645],[134.34829,34.46617],[134.3484,34.46591],[134.34828,34.46551],[134.3483,34.46504],[134.34803,34.46461],[134.34809,34.4645],[134.34835,34.46439],[134.34839,34.46429],[134.34825,34.46339],[134.34811,34.46329],[134.34773,34.46326],[134.34713,34.46278],[134.34711,34.46262],[134.34759,34.46237],[134.34768,34.46227],[134.34769,34.4621],[134.34706,34.46175],[134.34666,34.46146],[134.34563,34.46047],[134.34485,34.45915],[134.34439,34.45863],[134.34423,34.45824],[134.34412,34.45812],[134.34389,34.45798],[134.34335,34.45794],[134.34304,34.4581],[134.34284,34.45813],[134.34258,34.45792],[134.34234,34.45754],[134.34203,34.4573],[134.34208,34.45716],[134.34237,34.45692],[134.3424,34.45683],[134.3424,34.45649],[134.34217,34.45622],[134.34227,34.45604],[134.34229,34.45587],[134.34215,34.45573],[134.34165,34.4555],[134.34159,34.45531],[134.34164,34.45514],[134.34211,34.45471],[134.34217,34.45437],[134.342,34.4543],[134.34167,34.45434],[134.34125,34.45401],[134.34084,34.45408],[134.34058,34.45394],[134.34046,34.45366],[134.34017,34.45329],[134.34015,34.45278],[134.34008,34.45252],[134.33994,34.45236],[134.33972,34.45228],[134.33954,34.45231],[134.33935,34.45242],[134.33889,34.45287],[134.33877,34.45291],[134.33832,34.45289],[134.33808,34.45295],[134.33764,34.45294],[134.33734,34.45303],[134.33681,34.45332],[134.33661,34.45332],[134.33619,34.45292],[134.33581,34.45237],[134.33568,34.45145],[134.33529,34.45069],[134.33464,34.45037],[134.33416,34.45003],[134.33387,34.44988],[134.33359,34.44945],[134.33362,34.44924],[134.33393,34.44898],[134.33392,34.44859],[134.33398,34.44852],[134.33429,34.44838],[134.33439,34.44818],[134.3343,34.44797],[134.33398,34.44764],[134.33384,34.44724],[134.33386,34.4471],[134.33409,34.44686],[134.33411,34.44668],[134.33405,34.44652],[134.33379,34.4463],[134.33314,34.44594],[134.33368,34.44541],[134.33373,34.44529],[134.33367,34.44506],[134.33369,34.44494],[134.33439,34.44443],[134.33442,34.44395],[134.33508,34.44335],[134.33536,34.44291],[134.3357,34.44279],[134.33583,34.44269],[134.33616,34.44185],[134.33637,34.44169],[134.3367,34.44121],[134.33721,34.44082],[134.33743,34.4405],[134.3377,34.44026],[134.33778,34.44007],[134.33815,34.43995],[134.33827,34.43972],[134.33846,34.43953],[134.33872,34.43907],[134.33874,34.43874],[134.33887,34.43845],[134.33896,34.43802],[134.33894,34.43764],[134.3386,34.43707],[134.33849,34.4367],[134.33848,34.43616],[134.33835,34.43575],[134.33809,34.43546],[134.33797,34.43518],[134.33768,34.43501],[134.3376,34.4349],[134.33781,34.43429],[134.33762,34.43388],[134.33745,34.43371],[134.33723,34.4337],[134.3368,34.43389],[134.33659,34.4342],[134.33638,34.43436],[134.33609,34.43445],[134.33581,34.43445],[134.3356,34.4345],[134.33507,34.43477],[134.33502,34.43489],[134.3351,34.43572],[134.335,34.43585],[134.33472,34.43589],[134.3339,34.43586],[134.33371,34.43589],[134.33361,34.43595],[134.33358,34.43626],[134.33343,34.43649],[134.33343,34.43658],[134.3338,34.43694],[134.33384,34.43707],[134.33336,34.43781],[134.33321,34.4383],[134.33319,34.43849],[134.33336,34.43903],[134.3333,34.43935],[134.33314,34.43951],[134.33298,34.43958],[134.33215,34.43967],[134.33186,34.43978],[134.33142,34.44008],[134.33091,34.44065],[134.33065,34.44115],[134.33041,34.44147],[134.33031,34.44172],[134.33026,34.44207],[134.33029,34.44302],[134.33042,34.44428],[134.33053,34.4444],[134.33088,34.44452],[134.33109,34.44465],[134.33122,34.44504],[134.33159,34.44529],[134.3315,34.44583],[134.33155,34.44594],[134.33177,34.44616],[134.33164,34.44666],[134.33154,34.44679],[134.33145,34.44683],[134.3309,34.44685],[134.33062,34.44695],[134.33044,34.44762],[134.33031,34.44773],[134.32931,34.44816],[134.32913,34.44828],[134.32901,34.44844],[134.32894,34.44876],[134.32848,34.44897],[134.32812,34.44928],[134.32796,34.4495],[134.32782,34.44992],[134.32771,34.45008],[134.32656,34.45115],[134.32624,34.45137],[134.32556,34.45159],[134.32528,34.45176],[134.32522,34.45189],[134.3252,34.45221],[134.32513,34.45233],[134.32471,34.45249],[134.32458,34.45271],[134.32458,34.45282],[134.32477,34.45318],[134.32485,34.45365],[134.32464,34.45414],[134.32432,34.45456],[134.32432,34.45469],[134.32452,34.45489],[134.32451,34.455],[134.32436,34.45504],[134.32389,34.4548],[134.32377,34.45481],[134.32319,34.4557],[134.32223,34.45671],[134.32147,34.45735],[134.32047,34.45808],[134.31972,34.45838],[134.31947,34.4584],[134.3187,34.45827],[134.31849,34.45817],[134.31795,34.45775],[134.31751,34.45757],[134.31653,34.45754],[134.31637,34.45759],[134.31627,34.4577],[134.31624,34.45782],[134.31631,34.45797],[134.31698,34.45846],[134.31738,34.45897],[134.31742,34.45912],[134.31733,34.45989],[134.31725,34.46009],[134.31705,34.46026],[134.31652,34.46052],[134.31632,34.46074],[134.31626,34.46102],[134.31631,34.46144],[134.31648,34.46169],[134.31708,34.46203],[134.31769,34.46252],[134.3183,34.46346],[134.31859,34.46429],[134.3187,34.46528],[134.31887,34.46553],[134.31921,34.46587],[134.3194,34.46624],[134.31973,34.46776],[134.32008,34.46871],[134.32044,34.47002],[134.32047,34.47038],[134.32037,34.47072],[134.31789,34.47652],[134.3177,34.47659],[134.31539,34.47795],[134.31505,34.4781],[134.31096,34.47915],[134.30529,34.4786],[134.30051,34.47899],[134.29996,34.47897],[134.29969,34.47905],[134.2986,34.47968],[134.29823,34.47984],[134.29779,34.47996],[134.29689,34.48007],[134.29631,34.48004],[134.29549,34.47979],[134.29505,34.4796],[134.29451,34.47921],[134.29425,34.47896],[134.29307,34.47733],[134.29263,34.47618],[134.29236,34.4759],[134.29155,34.47551],[134.29033,34.47472],[134.28916,34.47423],[134.28847,34.47402],[134.28686,34.4737],[134.2851,34.47319],[134.28437,34.47276],[134.2831,34.47147],[134.28274,34.47125],[134.28255,34.47119],[134.28211,34.47115],[134.28053,34.47145],[134.28006,34.47147],[134.27922,34.47126],[134.27861,34.47104],[134.27831,34.47083],[134.27765,34.47022],[134.27726,34.47006],[134.27605,34.46994],[134.27258,34.46974],[134.272,34.46977],[134.27143,34.46987],[134.27084,34.47027],[134.27023,34.47049],[134.26828,34.4706],[134.26611,34.47031],[134.26579,34.47031],[134.2653,34.47046],[134.26469,34.47096],[134.26422,34.47114],[134.26385,34.47114],[134.26323,34.47099],[134.26264,34.47091],[134.26242,34.47094],[134.26173,34.47117],[134.26084,34.47116],[134.26044,34.47122],[134.25868,34.47164],[134.25801,34.47196],[134.25733,34.4725],[134.25594,34.47334],[134.2556,34.47351],[134.25439,34.47397],[134.25418,34.47414],[134.25363,34.47477],[134.2524,34.47556],[134.25193,34.47573],[134.25102,34.47594],[134.2505,34.47616],[134.25017,34.47634],[134.2499,34.47655],[134.24967,34.47686],[134.24776,34.47569],[134.24544,34.47461],[134.24456,34.47394],[134.24405,34.47375],[134.24288,34.47365],[134.24235,34.47348],[134.23717,34.4707],[134.23616,34.47142],[134.23573,34.47158],[134.23519,34.47159],[134.23473,34.47153],[134.23432,34.47138],[134.23387,34.47111],[134.23368,34.47105],[134.23348,34.47107],[134.23298,34.47126],[134.23246,34.47152],[134.23237,34.47167],[134.2324,34.47182],[134.23319,34.47315],[134.23334,34.47348],[134.23337,34.47385],[134.23325,34.47446],[134.23326,34.47492],[134.23351,34.47611],[134.23366,34.47731],[134.23244,34.47896],[134.2322,34.47919],[134.23099,34.47997],[134.22989,34.4803],[134.22867,34.48099],[134.22814,34.48116],[134.22683,34.4813],[134.22661,34.48129],[134.22618,34.48116],[134.2253,34.48071],[134.22492,34.48057],[134.22468,34.48053],[134.22334,34.4805],[134.22232,34.48007],[134.22199,34.48002],[134.22171,34.48004],[134.22108,34.48019],[134.2206,34.48037],[134.22013,34.4807],[134.2196,34.48119],[134.21917,34.48139],[134.21734,34.48157],[134.21637,34.48174],[134.20776,34.48415],[134.20703,34.48435],[134.20669,34.4844],[134.20626,34.48437],[134.2051,34.48407],[134.20474,34.48388],[134.20423,34.48348],[134.20394,34.48339],[134.20263,34.48352],[134.20228,34.48345],[134.20097,34.483],[134.20079,34.48297],[134.20042,34.483],[134.19978,34.48315],[134.19898,34.48365],[134.19857,34.48402],[134.19834,34.48431],[134.19781,34.48518],[134.19707,34.48649],[134.19694,34.48666],[134.1967,34.48684],[134.19628,34.48706],[134.19549,34.48727],[134.19368,34.48769],[134.19306,34.48776],[134.19081,34.48565],[134.18993,34.48461],[134.18952,34.48393],[134.18922,34.48326],[134.18868,34.48125],[134.18809,34.48023],[134.1878,34.47995],[134.18754,34.47982],[134.18715,34.47975],[134.18461,34.47976],[134.184,34.47964],[134.18369,34.47952],[134.18339,34.47933],[134.18209,34.47824],[134.18177,34.47786],[134.18048,34.47797],[134.17991,34.47785],[134.17963,34.4777],[134.17949,34.47757],[134.17905,34.47694],[134.17877,34.47681],[134.17856,34.47681],[134.17835,34.47687],[134.17768,34.47721],[134.17728,34.47723],[134.17659,34.47713],[134.17591,34.47696],[134.17432,34.47636],[134.17282,34.47546],[134.1716,34.47437],[134.17102,34.47371],[134.17094,34.47367],[134.1705,34.47371],[134.17009,34.4735],[134.16994,34.47339],[134.1697,34.473],[134.16867,34.47231],[134.16825,34.47183],[134.16759,34.47149],[134.16689,34.471],[134.16655,34.47052],[134.16641,34.46995],[134.16628,34.46967],[134.16554,34.46897],[134.16437,34.46719],[134.1613,34.46497],[134.16102,34.46484],[134.15954,34.46455],[134.15716,34.46437],[134.15692,34.46432],[134.15644,34.46402],[134.15503,34.46298],[134.15405,34.46244],[134.15365,34.46229],[134.1526,34.46206],[134.1523,34.46204],[134.15196,34.46213],[134.15172,34.46229],[134.15157,34.4625],[134.15065,34.46449],[134.14988,34.46581],[134.14866,34.46764],[134.14782,34.46909],[134.14757,34.4693],[134.14711,34.46948],[134.14658,34.46953],[134.14626,34.46951],[134.14528,34.46921],[134.14507,34.46905],[134.14484,34.46862],[134.14466,34.46855],[134.1445,34.46855],[134.14427,34.46869],[134.14401,34.46917],[134.14349,34.4695],[134.14326,34.46978],[134.14283,34.47038],[134.14273,34.47073],[134.14273,34.47108],[134.14282,34.47131],[134.14331,34.47194],[134.14367,34.47218],[134.14379,34.4724],[134.14384,34.47315],[134.14411,34.47493],[134.14416,34.47631],[134.14437,34.47716],[134.14498,34.47897],[134.1453,34.47961],[134.14566,34.48014],[134.14798,34.48337],[134.14822,34.48361],[134.14879,34.48389],[134.14982,34.48464],[134.15055,34.48493],[134.15077,34.48506],[134.1513,34.48555],[134.15156,34.48571],[134.15383,34.48655],[134.15456,34.48696],[134.1548,34.48694],[134.15518,34.48675],[134.15539,34.4867],[134.1563,34.48675],[134.15947,34.48639],[134.16001,34.48643],[134.16143,34.48684],[134.16176,34.4868],[134.16222,34.48666],[134.16255,34.48668],[134.16284,34.48679],[134.16339,34.48715],[134.1638,34.48725],[134.16435,34.48723],[134.16455,34.48726],[134.16479,34.48734],[134.16525,34.48762],[134.16575,34.48784],[134.16595,34.488],[134.16689,34.48908],[134.16751,34.48959],[134.16785,34.48969],[134.16804,34.48968],[134.17108,34.48904],[134.1722,34.48861]]]},"properties":{"id":444,"name":"香川県【KG-２】小豆島一周ルート","group":"香川県","elev_up_m":757,"intro_url":"https://setouchivelo.jp/route/route-291/","profile":[[0.0,6],[1.51,6],[2.81,4],[4.12,20],[4.81,24],[6.25,7],[7.25,0],[8.71,3],[9.91,0],[10.79,31],[11.92,10],[12.92,24],[13.87,34],[14.72,7],[16.24,13],[17.25,39],[17.89,10],[18.95,13],[20.1,12],[21.25,23],[22.68,6],[23.39,29],[24.88,8],[26.12,24],[26.89,62],[27.81,79],[28.87,52],[29.7,7],[30.66,36],[31.44,33],[32.44,6],[33.53,37],[34.18,32],[34.97,27],[35.54,61],[36.47,12],[38.09,76],[39.08,2],[40.0,27],[40.68,38],[41.47,16],[42.14,63],[42.82,109],[43.4,115],[43.97,166],[44.7,93],[45.52,50],[46.08,78],[46.9,67],[47.54,93],[48.15,65],[48.91,57],[49.55,71],[50.27,53],[51.05,51],[51.89,55],[52.81,47],[53.47,42],[54.27,15],[55.2,15],[55.82,17],[57.08,6],[58.93,3],[60.31,4],[61.51,5],[62.72,17],[63.48,37],[64.49,64],[66.14,6],[67.23,6],[68.47,12],[70.09,15],[71.21,14],[72.89,7],[74.02,6],[75.09,37],[76.63,6],[77.99,6],[79.59,4],[80.73,24],[81.52,16],[82.34,6]],"desc":"距離：82.4㎞\r\nhttps://setouchivelo.jp/route/route-291/","elev_src":"source","weight":3,"opacity":1}},{"type":"Feature","geometry":{"type":"MultiLineString","coordinates":[[[134.2987,34.47625],[134.29871,34.47692],[134.29887,34.47722],[134.29897,34.47771],[134.29975,34.47861],[134.29962,34.47868],[134.2999,34.47905],[134.29863,34.47968],[134.29789,34.47994],[134.29678,34.48008],[134.29618,34.48001],[134.29517,34.47967],[134.29488,34.4795],[134.29427,34.47901],[134.29321,34.47756],[134.29291,34.47699],[134.29262,34.47614],[134.29245,34.47593],[134.29148,34.47546],[134.29052,34.47482],[134.28925,34.47427],[134.28845,34.47402],[134.28731,34.4738],[134.28557,34.47336],[134.28511,34.47319],[134.28458,34.47291],[134.28434,34.47273],[134.28313,34.47151],[134.28282,34.47129],[134.28217,34.47116],[134.28061,34.47144],[134.28016,34.47149],[134.27993,34.47146],[134.27882,34.47114],[134.27834,34.47086],[134.27763,34.47021],[134.2774,34.47008],[134.27617,34.46995],[134.27246,34.46974],[134.27181,34.46979],[134.27141,34.46988],[134.27075,34.47031],[134.27013,34.4705],[134.2681,34.47059],[134.26611,34.47031],[134.26574,34.47032],[134.26527,34.47048],[134.26468,34.47097],[134.26422,34.47115],[134.26386,34.47115],[134.26291,34.47093],[134.26256,34.47092],[134.26171,34.47116],[134.26089,34.47115],[134.26041,34.47121],[134.25843,34.4717],[134.25782,34.47201],[134.25711,34.4726],[134.25588,34.47338],[134.25436,34.47399],[134.25361,34.47478],[134.2526,34.47546],[134.25238,34.47557],[134.25091,34.47598],[134.25025,34.47628],[134.24997,34.47649],[134.24968,34.47684],[134.24928,34.47831],[134.24914,34.47849],[134.24873,34.47882],[134.24882,34.47901],[134.24879,34.47911],[134.24869,34.47919],[134.24848,34.47924],[134.24812,34.47962],[134.24803,34.47983],[134.24807,34.48003],[134.24867,34.48058],[134.24919,34.48121],[134.24947,34.4812],[134.24958,34.48111],[134.24961,34.48101],[134.24956,34.48091],[134.24913,34.48065],[134.24889,34.48015],[134.24898,34.48002],[134.24915,34.48006],[134.2492,34.48033],[134.24931,34.48049],[134.24997,34.48067],[134.25021,34.48086],[134.25011,34.48154],[134.24992,34.48166],[134.24959,34.48177],[134.24926,34.48172],[134.24917,34.4818],[134.24923,34.48194],[134.24932,34.48197],[134.2495,34.48189],[134.25017,34.48175],[134.25029,34.48164],[134.25051,34.48125],[134.25063,34.4812],[134.25085,34.48127],[134.25147,34.48166],[134.2521,34.48169],[134.25247,34.48176],[134.25261,34.48173],[134.25268,34.48162],[134.25254,34.48138],[134.25257,34.48129],[134.25283,34.48102],[134.2528,34.48076],[134.25331,34.48045],[134.25375,34.48061],[134.25389,34.48059],[134.25399,34.48046],[134.25408,34.48016],[134.25427,34.48003],[134.25439,34.48005],[134.25449,34.48015],[134.25478,34.481],[134.25477,34.48156],[134.25482,34.48169],[134.2556,34.48184],[134.25577,34.48179],[134.25579,34.48168],[134.25548,34.48151],[134.25542,34.48135],[134.25567,34.48106],[134.25611,34.48096],[134.25661,34.4811],[134.25699,34.48088],[134.25725,34.48086],[134.25787,34.48093],[134.25811,34.48103],[134.25824,34.481],[134.2587,34.48067],[134.25917,34.48066],[134.25956,34.48047],[134.25976,34.48056],[134.26001,34.48087],[134.2603,34.48091],[134.26116,34.48129],[134.26185,34.48093],[134.26246,34.48082],[134.26264,34.4807],[134.26276,34.48072],[134.26282,34.48082],[134.26275,34.48093],[134.26242,34.48092],[134.26192,34.4811],[134.26105,34.48175],[134.26076,34.4818],[134.26071,34.48192],[134.26077,34.48201],[134.26093,34.48202],[134.26112,34.48182],[134.26181,34.48147],[134.26216,34.48134],[134.2625,34.48129],[134.26309,34.48132],[134.26369,34.48127],[134.26377,34.48138],[134.26366,34.48149],[134.26315,34.48148],[134.26259,34.48157],[134.26252,34.48167],[134.26259,34.48191],[134.26273,34.48197],[134.26335,34.48169],[134.26356,34.48167],[134.26365,34.4817],[134.26383,34.48181],[134.26465,34.48257],[134.26495,34.48299],[134.26496,34.48313],[134.26483,34.48329],[134.26486,34.48387],[134.26447,34.48396],[134.26441,34.48403],[134.26442,34.4844],[134.26431,34.48484],[134.26447,34.48506],[134.26444,34.48532],[134.26459,34.48571],[134.2645,34.48578],[134.26417,34.48587],[134.26409,34.48596],[134.26445,34.48696],[134.26464,34.48727],[134.26452,34.4876],[134.26454,34.48802],[134.26427,34.48827],[134.26424,34.48835],[134.26438,34.48864],[134.26471,34.48893],[134.26474,34.48913],[134.26433,34.48956],[134.26413,34.48963],[134.26376,34.48966],[134.26366,34.48974],[134.26367,34.48983],[134.26374,34.48989],[134.26386,34.4899],[134.26411,34.48979],[134.2646,34.48972],[134.26475,34.48965],[134.2654,34.48914],[134.26544,34.48885],[134.26537,34.48867],[134.26548,34.48855],[134.26559,34.48856],[134.26568,34.48865],[134.2656,34.48897],[134.2656,34.48949],[134.26544,34.48976],[134.26512,34.48991],[134.26515,34.49006],[134.26531,34.49009],[134.26538,34.49005],[134.2655,34.48986],[134.2661,34.48946],[134.26626,34.4893],[134.26632,34.48912],[134.26626,34.48879],[134.26612,34.48862],[134.26615,34.48851],[134.26628,34.48848],[134.26639,34.48852],[134.26639,34.48874],[134.2666,34.48895],[134.26666,34.48914],[134.26665,34.48956],[134.26651,34.48987],[134.2663,34.49024],[134.26583,34.49088],[134.2655,34.49112],[134.26488,34.49123],[134.26478,34.49133],[134.2648,34.49144],[134.26491,34.49152],[134.26503,34.49154],[134.26566,34.49151],[134.26636,34.49119],[134.26739,34.49102],[134.26748,34.49119],[134.26667,34.49175],[134.26606,34.49229],[134.26594,34.49242],[134.2659,34.49257],[134.26603,34.49269],[134.26621,34.49272],[134.26658,34.49274],[134.26676,34.4927],[134.26684,34.49278],[134.26681,34.49289],[134.26691,34.49294],[134.26828,34.49336],[134.26893,34.49326],[134.26961,34.49331],[134.27055,34.49293],[134.27103,34.49247],[134.27125,34.4924],[134.27203,34.49239],[134.2726,34.49203],[134.27278,34.49202],[134.27406,34.49305],[134.2743,34.49337],[134.27413,34.49359],[134.27433,34.49374]]]},"properties":{"id":"shodo-kankakei-south","name":"寒霞渓ヒルクライム 南ルート（県道29号・草壁）","group":"寒霞渓 ヒルクライム","source":"OpenStreetMap","distance_km":13.2,"elev_up_m":680,"profile":[[0.0,0],[0.17,1],[0.35,6],[0.66,8],[0.85,4],[1.19,5],[1.42,5],[1.74,2],[2.06,8],[2.32,6],[2.57,3],[2.74,4],[2.92,6],[3.43,13],[3.61,15],[4.01,21],[4.18,29],[4.34,32],[4.54,40],[4.89,69],[5.3,84],[5.58,61],[5.73,66],[5.98,54],[6.02,57],[6.12,60],[6.31,92],[6.36,101],[6.48,89],[6.55,100],[6.66,124],[6.79,122],[6.85,122],[6.94,136],[7.02,141],[7.17,160],[7.23,174],[7.31,172],[7.44,188],[7.51,181],[7.55,184],[7.73,214],[7.83,225],[7.92,225],[8.06,238],[8.16,253],[8.27,260],[8.38,275],[8.57,288],[8.66,294],[8.72,296],[8.9,301],[8.94,300],[9.08,309],[9.22,321],[9.3,329],[9.39,327],[9.49,337],[9.63,354],[9.72,369],[9.83,366],[9.95,388],[10.04,400],[10.2,399],[10.32,420],[10.4,417],[10.53,430],[10.6,424],[10.63,431],[10.71,441],[10.85,447],[10.89,458],[11.02,465],[11.08,473],[11.19,478],[11.27,480],[11.31,488],[11.38,488],[11.49,495],[11.65,514],[11.74,511],[11.82,527],[12.01,542],[12.21,550],[12.26,553],[12.32,559],[12.48,571],[12.7,577],[12.86,582],[13.11,591],[13.2,589]],"elev_src":"source"}},{"type":"Feature","geometry":{"type":"MultiLineString","coordinates":[[[134.34442,34.52378],[134.34476,34.52392],[134.34472,34.52402],[134.34448,34.524],[134.34459,34.52417],[134.34481,34.52423],[134.34495,34.52438],[134.3462,34.52493],[134.34668,34.52546],[134.34698,34.52571],[134.34715,34.52574],[134.34746,34.52564],[134.3476,34.52568],[134.34772,34.52586],[134.34777,34.52637],[134.34786,34.52657],[134.34825,34.52688],[134.34882,34.52709],[134.34941,34.52722],[134.34977,34.52738],[134.35002,34.52744],[134.35029,34.52749],[134.35059,34.52748],[134.35089,34.52738],[134.35097,34.52731],[134.35097,34.52717],[134.35085,34.52705],[134.35058,34.52696],[134.34995,34.52694],[134.34959,34.52681],[134.34955,34.52675],[134.34963,34.52671],[134.35024,34.52681],[134.35057,34.52667],[134.35096,34.52664],[134.3512,34.52674],[134.35144,34.52703],[134.35151,34.52705],[134.35158,34.52706],[134.35216,34.52688],[134.35233,34.52691],[134.35261,34.52719],[134.35285,34.52734],[134.35291,34.52755],[134.35301,34.52763],[134.35324,34.52757],[134.35353,34.52719],[134.35383,34.52709],[134.35396,34.52712],[134.35404,34.52719],[134.35405,34.5273],[134.35394,34.5275],[134.35396,34.52759],[134.35427,34.52792],[134.35455,34.52802],[134.3549,34.52789],[134.35535,34.52787],[134.35542,34.52781],[134.35549,34.52747],[134.35556,34.52742],[134.35565,34.52743],[134.35617,34.52817],[134.3563,34.52869],[134.35632,34.52931],[134.35648,34.52972],[134.35666,34.5299],[134.35699,34.53002],[134.35702,34.52934],[134.35678,34.52799],[134.35669,34.52766],[134.35632,34.52688],[134.35636,34.5261],[134.35631,34.52591],[134.35611,34.52567],[134.35569,34.52537],[134.35526,34.52478],[134.35508,34.52466],[134.35486,34.52458],[134.35417,34.52448],[134.35396,34.52436],[134.35364,34.52392],[134.35354,34.52363],[134.35352,34.52327],[134.35357,34.52305],[134.35411,34.52139],[134.35463,34.52048],[134.35497,34.51888],[134.35489,34.51693],[134.35456,34.51547],[134.35464,34.51409],[134.35363,34.51206],[134.35308,34.51036],[134.35293,34.51021],[134.35235,34.51],[134.35227,34.5099],[134.35227,34.50971],[134.35249,34.50929],[134.35251,34.50916],[134.35243,34.50896],[134.35175,34.50847],[134.35118,34.50784],[134.35058,34.50764],[134.35032,34.5075],[134.34992,34.50703],[134.34922,34.5064],[134.34905,34.50603],[134.349,34.50552],[134.34856,34.50493],[134.34798,34.50379],[134.34783,34.50324],[134.34744,34.50243],[134.34715,34.50119],[134.34712,34.50072],[134.3472,34.50025],[134.34761,34.4996],[134.34793,34.49936],[134.34814,34.49927],[134.34865,34.49908],[134.34953,34.49886],[134.35018,34.4982],[134.35026,34.49804],[134.35028,34.49758],[134.35005,34.49668],[134.35005,34.49619],[134.35016,34.49603],[134.35048,34.49585],[134.35056,34.49564],[134.3504,34.49543],[134.35026,34.49513],[134.35033,34.49487],[134.35031,34.49476],[134.35,34.49456],[134.34974,34.49387],[134.35035,34.49323],[134.35037,34.49307],[134.3503,34.49279],[134.35009,34.49248],[134.34872,34.49143],[134.34842,34.49134],[134.34785,34.49126],[134.34729,34.491],[134.34695,34.49102],[134.34669,34.49112],[134.34653,34.49125],[134.3463,34.49164],[134.34611,34.49174],[134.34592,34.49174],[134.34522,34.4916],[134.34459,34.49141],[134.34413,34.49151],[134.34383,34.49152],[134.3431,34.49124],[134.34236,34.49113],[134.34144,34.49065],[134.3414,34.49047],[134.34163,34.48995],[134.34175,34.48907],[134.342,34.48863],[134.34199,34.48816],[134.34221,34.48759],[134.34221,34.48744],[134.34202,34.48713],[134.342,34.48695],[134.3422,34.48675],[134.34265,34.48662],[134.34275,34.48652],[134.34276,34.48636],[134.34258,34.4862],[134.34198,34.48611],[134.34169,34.48601],[134.34134,34.48576],[134.33985,34.48331],[134.33909,34.48241],[134.33809,34.48157],[134.33708,34.48095],[134.33652,34.48067],[134.33558,34.48034],[134.33472,34.48017],[134.33295,34.48014],[134.33118,34.48026],[134.32909,34.48055],[134.32741,34.48089],[134.32678,34.48105],[134.32604,34.48134],[134.32454,34.48151],[134.32329,34.4819],[134.3226,34.48204],[134.3217,34.48211],[134.31975,34.4821],[134.31903,34.48218],[134.31889,34.48209],[134.31876,34.48165],[134.31852,34.4812],[134.31683,34.47944],[134.3162,34.47886],[134.31598,34.47872],[134.31475,34.47819],[134.31099,34.47915],[134.30515,34.4786],[134.30006,34.47903],[134.29979,34.47908],[134.29863,34.47968],[134.29789,34.47994],[134.29692,34.48007],[134.29639,34.48006],[134.29517,34.47967],[134.29488,34.4795],[134.29427,34.47901],[134.29321,34.47756],[134.29291,34.47699],[134.29262,34.47614],[134.29245,34.47593],[134.29148,34.47546],[134.29052,34.47482],[134.28925,34.47427],[134.28845,34.47402],[134.28731,34.4738],[134.28557,34.47336],[134.28511,34.47319],[134.28458,34.47291],[134.28434,34.47273],[134.28313,34.47151],[134.28282,34.47129],[134.28217,34.47116],[134.28061,34.47144],[134.28016,34.47149],[134.27993,34.47146],[134.27882,34.47114],[134.27834,34.47086],[134.27763,34.47021],[134.2774,34.47008],[134.27617,34.46995],[134.27277,34.46975],[134.2722,34.46975],[134.27158,34.46983],[134.27125,34.46995],[134.27075,34.47031],[134.27013,34.4705],[134.2681,34.47059],[134.26611,34.47031],[134.26574,34.47032],[134.26527,34.47048],[134.26468,34.47097],[134.26422,34.47115],[134.26386,34.47115],[134.26291,34.47093],[134.26256,34.47092],[134.26171,34.47116],[134.26089,34.47115],[134.26041,34.47121],[134.25843,34.4717],[134.25782,34.47201],[134.25711,34.4726],[134.25588,34.47338],[134.25436,34.47399],[134.25361,34.47478],[134.2526,34.47546],[134.25238,34.47557],[134.25091,34.47598],[134.25025,34.47628],[134.24997,34.47649],[134.24968,34.47684],[134.24928,34.47831],[134.24914,34.47849],[134.24873,34.47882],[134.24882,34.47901],[134.24879,34.47911],[134.24869,34.47919],[134.24848,34.47924],[134.24812,34.47962],[134.24803,34.47983],[134.24807,34.48003],[134.24867,34.48058],[134.24919,34.48121],[134.24947,34.4812],[134.24958,34.48111],[134.24961,34.48101],[134.24956,34.48091],[134.24913,34.48065],[134.24889,34.48015],[134.24898,34.48002],[134.24915,34.48006],[134.2492,34.48033],[134.24931,34.48049],[134.24997,34.48067],[134.25021,34.48086],[134.25011,34.48154],[134.24992,34.48166],[134.24959,34.48177],[134.24926,34.48172],[134.24917,34.4818],[134.24923,34.48194],[134.24932,34.48197],[134.2495,34.48189],[134.25017,34.48175],[134.25029,34.48164],[134.25051,34.48125],[134.25063,34.4812],[134.25085,34.48127],[134.25147,34.48166],[134.2521,34.48169],[134.25247,34.48176],[134.25261,34.48173],[134.25268,34.48162],[134.25254,34.48138],[134.25257,34.48129],[134.25283,34.48102],[134.2528,34.48076],[134.25331,34.48045],[134.25375,34.48061],[134.25389,34.48059],[134.25399,34.48046],[134.25408,34.48016],[134.25427,34.48003],[134.25439,34.48005],[134.25449,34.48015],[134.25478,34.481],[134.25477,34.48156],[134.25482,34.48169],[134.2556,34.48184],[134.25577,34.48179],[134.25579,34.48168],[134.25548,34.48151],[134.25542,34.48135],[134.25567,34.48106],[134.25611,34.48096],[134.25661,34.4811],[134.25699,34.48088],[134.25725,34.48086],[134.25787,34.48093],[134.25811,34.48103],[134.25824,34.481],[134.2587,34.48067],[134.25917,34.48066],[134.25956,34.48047],[134.25976,34.48056],[134.26001,34.48087],[134.2603,34.48091],[134.26116,34.48129],[134.26185,34.48093],[134.26246,34.48082],[134.26264,34.4807],[134.26276,34.48072],[134.26282,34.48082],[134.26275,34.48093],[134.26242,34.48092],[134.26192,34.4811],[134.26105,34.48175],[134.26076,34.4818],[134.26071,34.48192],[134.26077,34.48201],[134.26093,34.48202],[134.26112,34.48182],[134.26181,34.48147],[134.26216,34.48134],[134.2625,34.48129],[134.26309,34.48132],[134.26369,34.48127],[134.26377,34.48138],[134.26366,34.48149],[134.26315,34.48148],[134.26259,34.48157],[134.26252,34.48167],[134.26259,34.48191],[134.26273,34.48197],[134.26335,34.48169],[134.26356,34.48167],[134.26365,34.4817],[134.26383,34.48181],[134.26465,34.48257],[134.26495,34.48299],[134.26496,34.48313],[134.26483,34.48329],[134.26486,34.48387],[134.26447,34.48396],[134.26441,34.48403],[134.26442,34.4844],[134.26431,34.48484],[134.26447,34.48506],[134.26444,34.48532],[134.26459,34.48571],[134.2645,34.48578],[134.26417,34.48587],[134.26409,34.48596],[134.26445,34.48696],[134.26464,34.48727],[134.26452,34.4876],[134.26454,34.48802],[134.26427,34.48827],[134.26424,34.48835],[134.26438,34.48864],[134.26471,34.48893],[134.26474,34.48913],[134.26433,34.48956],[134.26413,34.48963],[134.26376,34.48966],[134.26366,34.48974],[134.26367,34.48983],[134.26374,34.48989],[134.26386,34.4899],[134.26411,34.48979],[134.2646,34.48972],[134.26475,34.48965],[134.2654,34.48914],[134.26544,34.48885],[134.26537,34.48867],[134.26548,34.48855],[134.26559,34.48856],[134.26568,34.48865],[134.2656,34.48897],[134.2656,34.48949],[134.26544,34.48976],[134.26512,34.48991],[134.26515,34.49006],[134.26531,34.49009],[134.26538,34.49005],[134.2655,34.48986],[134.2661,34.48946],[134.26626,34.4893],[134.26632,34.48912],[134.26628,34.48884],[134.26612,34.48862],[134.26615,34.48851],[134.26628,34.48848],[134.26639,34.48852],[134.26639,34.48874],[134.2666,34.48895],[134.26666,34.48914],[134.26665,34.48956],[134.26651,34.48987],[134.2663,34.49024],[134.26583,34.49088],[134.2655,34.49112],[134.26488,34.49123],[134.26478,34.49133],[134.2648,34.49144],[134.26491,34.49152],[134.26503,34.49154],[134.26566,34.49151],[134.26636,34.49119],[134.26739,34.49102],[134.26748,34.49119],[134.26667,34.49175],[134.26606,34.49229],[134.26594,34.49242],[134.2659,34.49257],[134.26603,34.49269],[134.26621,34.49272],[134.26658,34.49274],[134.26676,34.4927],[134.26684,34.49278],[134.26681,34.49289],[134.26691,34.49294],[134.26828,34.49336],[134.26893,34.49326],[134.26961,34.49331],[134.27055,34.49293],[134.27103,34.49247],[134.27125,34.4924],[134.27203,34.49239],[134.2726,34.49203],[134.27278,34.49202],[134.27406,34.49305],[134.2743,34.49337],[134.27413,34.49359],[134.27433,34.49374]]]},"properties":{"id":"shodo-kankakei-east","name":"寒霞渓ヒルクライム 東ルート（県道246号・福田）","group":"寒霞渓 ヒルクライム","source":"OpenStreetMap","distance_km":25.7,"elev_up_m":821,"profile":[[0.0,245],[0.11,232],[0.39,214],[0.54,210],[0.76,201],[0.87,189],[1.02,193],[1.18,170],[1.3,149],[1.43,136],[1.54,123],[1.69,105],[1.79,90],[2.09,66],[2.48,42],[2.75,20],[2.94,14],[3.34,31],[4.3,63],[4.61,71],[4.87,45],[5.16,26],[5.59,2],[5.96,6],[6.23,16],[6.49,29],[6.62,39],[6.88,43],[7.23,31],[7.38,24],[7.59,14],[7.92,15],[8.2,28],[8.35,36],[8.52,47],[9.25,88],[9.95,23],[10.5,9],[10.91,9],[11.38,6],[12.9,6],[13.36,5],[13.82,4],[14.28,2],[14.69,6],[15.15,4],[15.45,6],[16.02,12],[16.55,21],[16.84,31],[17.27,58],[17.83,84],[18.22,64],[18.54,56],[18.66,60],[18.89,98],[19.04,92],[19.2,124],[19.37,116],[19.5,138],[19.71,160],[19.81,165],[19.99,189],[20.09,184],[20.36,226],[20.5,225],[20.7,253],[20.87,261],[21.16,293],[21.25,296],[21.46,300],[21.65,312],[21.83,329],[22.01,337],[22.22,371],[22.37,366],[22.56,404],[22.77,411],[22.94,417],[23.12,425],[23.19,435],[23.39,447],[23.52,463],[23.63,473],[23.8,480],[23.89,487],[24.07,502],[24.28,511],[24.53,538],[24.76,552],[24.86,559],[25.14,572],[25.46,592],[25.74,589]],"elev_src":"source"}},{"type":"Feature","geometry":{"type":"MultiLineString","coordinates":[[[134.27269,34.54631],[134.27245,34.54635],[134.27223,34.54646],[134.27158,34.54709],[134.26983,34.54763],[134.26918,34.54767],[134.26898,34.54765],[134.26851,34.5475],[134.26791,34.54747],[134.26617,34.54785],[134.26587,34.5478],[134.26486,34.54723],[134.26397,34.5469],[134.26356,34.54686],[134.26256,34.54695],[134.26194,34.54695],[134.26102,34.54685],[134.26046,34.54668],[134.26008,34.5465],[134.25971,34.54623],[134.25898,34.5455],[134.25883,34.54541],[134.2583,34.54529],[134.25787,34.54492],[134.25748,34.54429],[134.25742,34.54366],[134.25711,34.54311],[134.25713,34.54254],[134.25701,34.54234],[134.25683,34.54222],[134.25612,34.54192],[134.25578,34.54188],[134.25541,34.54197],[134.25494,34.54226],[134.25463,34.54228],[134.25436,34.5421],[134.25378,34.54134],[134.25285,34.54064],[134.25258,34.54055],[134.25166,34.54044],[134.25099,34.54031],[134.25029,34.54006],[134.24988,34.53986],[134.24925,34.5394],[134.24846,34.53908],[134.24817,34.53892],[134.2464,34.53773],[134.24587,34.53746],[134.24546,34.53718],[134.24501,34.53678],[134.24457,34.53628],[134.24394,34.53592],[134.24345,34.53513],[134.24268,34.53425],[134.24256,34.53406],[134.24236,34.53338],[134.24225,34.53319],[134.24049,34.53036],[134.24021,34.53004],[134.24001,34.52992],[134.23862,34.52927],[134.23586,34.52905],[134.23518,34.52896],[134.23464,34.52885],[134.23335,34.52845],[134.23317,34.52835],[134.23271,34.52791],[134.23219,34.52751],[134.23122,34.52699],[134.23046,34.52668],[134.2285,34.52669],[134.22811,34.52677],[134.22788,34.52691],[134.22777,34.5271],[134.22792,34.52754],[134.22791,34.52772],[134.22784,34.5278],[134.22771,34.52787],[134.22709,34.52796],[134.22621,34.52828],[134.22531,34.52813],[134.22456,34.52826],[134.22402,34.5282],[134.22225,34.52744],[134.22212,34.52717],[134.22208,34.5269],[134.22252,34.52526],[134.22245,34.52497],[134.22167,34.52405],[134.22137,34.52392],[134.22108,34.52389],[134.22056,34.52407],[134.22038,34.52419],[134.22017,34.52449],[134.2201,34.52454],[134.21993,34.52456],[134.21941,34.52443],[134.21871,34.52389],[134.21853,34.52365],[134.21844,34.52334],[134.21849,34.52166],[134.21844,34.52137],[134.21822,34.521],[134.21742,34.52034],[134.21722,34.51996],[134.21718,34.51966],[134.21726,34.51934],[134.21794,34.51797],[134.21841,34.51658],[134.21838,34.51627],[134.21831,34.51612],[134.21784,34.51537],[134.21767,34.51469],[134.21761,34.5142],[134.21763,34.51346],[134.21747,34.51259],[134.21756,34.51177],[134.21745,34.51149],[134.21722,34.51126],[134.21604,34.51062],[134.21584,34.51046],[134.21561,34.51004],[134.21556,34.50971],[134.21559,34.5093],[134.21591,34.50813],[134.21597,34.50763],[134.21598,34.50612],[134.21594,34.5058],[134.21461,34.5033],[134.21452,34.50295],[134.21454,34.50245],[134.21442,34.50225],[134.21415,34.50209],[134.21322,34.50189],[134.21305,34.50173],[134.21308,34.50152],[134.21356,34.50078],[134.21352,34.50055],[134.21343,34.50048],[134.2132,34.50044],[134.21256,34.50056],[134.21242,34.50056],[134.21221,34.50049],[134.21197,34.50022],[134.21135,34.49915],[134.21095,34.49889],[134.2098,34.49835],[134.20959,34.49817],[134.20908,34.49758],[134.20886,34.49741],[134.20808,34.49713],[134.20763,34.49689],[134.20696,34.49629],[134.20665,34.49608],[134.20525,34.4953],[134.2047,34.49466],[134.20439,34.49409],[134.20415,34.49381],[134.20306,34.49327],[134.20169,34.49308],[134.20118,34.49291],[134.19946,34.49193],[134.19614,34.49051],[134.19564,34.49016],[134.19308,34.48777],[134.19544,34.48729],[134.19607,34.48712],[134.19669,34.4868],[134.19707,34.48646],[134.19723,34.48625],[134.19831,34.48435],[134.19869,34.48389],[134.19895,34.48367],[134.19944,34.48338],[134.20047,34.48299],[134.20079,34.48297],[134.20098,34.48301],[134.20256,34.48352],[134.20378,34.48341],[134.20408,34.48346],[134.20443,34.48366],[134.2049,34.48401],[134.20623,34.48437],[134.2067,34.4844],[134.20715,34.48432],[134.21658,34.48168],[134.21919,34.48135],[134.21968,34.48111],[134.22063,34.48035],[134.22109,34.48018],[134.22162,34.48006],[134.22201,34.48002],[134.22248,34.48013],[134.2234,34.48052],[134.22461,34.48054],[134.22517,34.48064],[134.22618,34.48116],[134.22658,34.48128],[134.22814,34.48117],[134.22867,34.48099],[134.22908,34.48151],[134.22991,34.48224],[134.23121,34.48235],[134.23172,34.48244],[134.23489,34.48355],[134.23514,34.48358],[134.23539,34.48355],[134.23811,34.48268],[134.23847,34.48261],[134.23874,34.48264],[134.24116,34.48326],[134.24141,34.48327],[134.24168,34.4832],[134.24274,34.48262],[134.24346,34.4818],[134.24393,34.48145],[134.24469,34.48112],[134.2456,34.48088],[134.24613,34.48067],[134.24873,34.47882],[134.24882,34.47901],[134.24879,34.47911],[134.24869,34.47919],[134.24848,34.47924],[134.24812,34.47962],[134.24803,34.47983],[134.24807,34.48003],[134.24867,34.48058],[134.24919,34.48121],[134.24947,34.4812],[134.24958,34.48111],[134.24961,34.48101],[134.24956,34.48091],[134.24913,34.48065],[134.24889,34.48015],[134.24898,34.48002],[134.24915,34.48006],[134.2492,34.48033],[134.24931,34.48049],[134.24997,34.48067],[134.25021,34.48086],[134.25011,34.48154],[134.24992,34.48166],[134.24959,34.48177],[134.24926,34.48172],[134.24918,34.48178],[134.24917,34.48188],[134.24932,34.48197],[134.2495,34.48189],[134.25017,34.48175],[134.25029,34.48164],[134.25051,34.48125],[134.25063,34.4812],[134.25085,34.48127],[134.25147,34.48166],[134.2521,34.48169],[134.25247,34.48176],[134.25261,34.48173],[134.25268,34.48162],[134.25254,34.48138],[134.25257,34.48129],[134.25283,34.48102],[134.2528,34.48076],[134.25331,34.48045],[134.25375,34.48061],[134.25389,34.48059],[134.25399,34.48046],[134.25408,34.48016],[134.25427,34.48003],[134.25439,34.48005],[134.25449,34.48015],[134.25478,34.481],[134.25477,34.48156],[134.25482,34.48169],[134.2556,34.48184],[134.25577,34.48179],[134.25579,34.48168],[134.25548,34.48151],[134.25542,34.48135],[134.25567,34.48106],[134.25611,34.48096],[134.25661,34.4811],[134.25699,34.48088],[134.25725,34.48086],[134.25787,34.48093],[134.25811,34.48103],[134.25824,34.481],[134.2587,34.48067],[134.25917,34.48066],[134.25956,34.48047],[134.25976,34.48056],[134.26001,34.48087],[134.2603,34.48091],[134.26116,34.48129],[134.26185,34.48093],[134.26246,34.48082],[134.26264,34.4807],[134.26276,34.48072],[134.26282,34.48082],[134.26275,34.48093],[134.26242,34.48092],[134.26192,34.4811],[134.26105,34.48175],[134.26076,34.4818],[134.26071,34.48192],[134.26077,34.48201],[134.26093,34.48202],[134.26112,34.48182],[134.26181,34.48147],[134.26216,34.48134],[134.2625,34.48129],[134.26309,34.48132],[134.26369,34.48127],[134.26377,34.48138],[134.26366,34.48149],[134.26315,34.48148],[134.26259,34.48157],[134.26252,34.48167],[134.26259,34.48191],[134.26273,34.48197],[134.26335,34.48169],[134.26356,34.48167],[134.26365,34.4817],[134.26383,34.48181],[134.26465,34.48257],[134.26495,34.48299],[134.26496,34.48313],[134.26483,34.48329],[134.26486,34.48387],[134.26447,34.48396],[134.26441,34.48403],[134.26442,34.4844],[134.26431,34.48484],[134.26447,34.48506],[134.26444,34.48532],[134.26459,34.48571],[134.2645,34.48578],[134.26417,34.48587],[134.26409,34.48596],[134.26445,34.48696],[134.26464,34.48727],[134.26452,34.4876],[134.26454,34.48802],[134.26427,34.48827],[134.26424,34.48835],[134.26438,34.48864],[134.26471,34.48893],[134.26474,34.48913],[134.26433,34.48956],[134.26413,34.48963],[134.26376,34.48966],[134.26366,34.48974],[134.26367,34.48983],[134.26374,34.48989],[134.26386,34.4899],[134.26411,34.48979],[134.2646,34.48972],[134.26475,34.48965],[134.2654,34.48914],[134.26544,34.48885],[134.26537,34.48867],[134.26548,34.48855],[134.26559,34.48856],[134.26568,34.48865],[134.2656,34.48897],[134.2656,34.48949],[134.26544,34.48976],[134.26512,34.48991],[134.26515,34.49006],[134.26531,34.49009],[134.26538,34.49005],[134.2655,34.48986],[134.2661,34.48946],[134.26626,34.4893],[134.26632,34.48912],[134.26626,34.48879],[134.26612,34.48862],[134.26615,34.48851],[134.26628,34.48848],[134.26639,34.48852],[134.26639,34.48874],[134.2666,34.48895],[134.26666,34.48914],[134.26665,34.48956],[134.26651,34.48987],[134.2663,34.49024],[134.26583,34.49088],[134.2655,34.49112],[134.26488,34.49123],[134.26478,34.49133],[134.2648,34.49144],[134.26491,34.49152],[134.26503,34.49154],[134.26566,34.49151],[134.26636,34.49119],[134.26739,34.49102],[134.26748,34.49119],[134.26667,34.49175],[134.26606,34.49229],[134.26594,34.49242],[134.2659,34.49257],[134.26603,34.49269],[134.26621,34.49272],[134.26658,34.49274],[134.26676,34.4927],[134.26684,34.49278],[134.26681,34.49289],[134.26691,34.49294],[134.26828,34.49336],[134.26893,34.49326],[134.26961,34.49331],[134.27055,34.49293],[134.27103,34.49247],[134.27125,34.4924],[134.27203,34.49239],[134.2726,34.49203],[134.27278,34.49202],[134.27406,34.49305],[134.2743,34.49337],[134.27413,34.49359],[134.27433,34.49374]]]},"properties":{"id":"shodo-kankakei-north","name":"寒霞渓ヒルクライム 北ルート（大部・裏ルート）","group":"寒霞渓 ヒルクライム","source":"OpenStreetMap","distance_km":25.1,"elev_up_m":860,"profile":[[0.0,20],[0.37,9],[0.68,13],[1.07,10],[1.4,5],[1.67,9],[1.92,27],[2.1,32],[2.49,43],[2.8,39],[3.24,21],[3.63,6],[4.22,4],[4.74,13],[5.23,5],[5.39,8],[5.64,31],[6.01,40],[6.41,72],[6.55,72],[6.94,101],[7.2,119],[7.61,148],[8.02,174],[8.33,159],[8.65,131],[9.26,89],[9.45,83],[9.66,63],[9.91,45],[10.24,29],[10.66,14],[11.06,12],[12.24,8],[12.68,19],[12.96,6],[13.31,9],[14.5,10],[15.01,22],[15.35,8],[15.76,4],[16.38,10],[16.96,15],[17.3,30],[17.86,56],[17.98,60],[18.21,98],[18.36,92],[18.52,124],[18.69,116],[18.82,138],[19.03,160],[19.13,165],[19.31,189],[19.41,184],[19.68,226],[19.82,225],[20.02,253],[20.19,261],[20.48,293],[20.57,296],[20.78,300],[20.97,312],[21.15,329],[21.33,337],[21.54,371],[21.69,366],[21.88,404],[22.09,411],[22.26,417],[22.44,425],[22.51,435],[22.71,447],[22.84,463],[22.95,473],[23.12,480],[23.21,487],[23.39,502],[23.6,511],[23.85,538],[24.08,552],[24.18,559],[24.46,572],[24.78,592],[25.06,589]],"elev_src":"source"}},{"type":"Feature","geometry":{"type":"MultiLineString","coordinates":[[[134.18504,34.48812],[134.18621,34.48853],[134.18713,34.48891],[134.18754,34.48889],[134.19052,34.4885],[134.19132,34.48806],[134.19153,34.488],[134.19337,34.48772],[134.19544,34.48729],[134.19607,34.48712],[134.19669,34.4868],[134.19707,34.48646],[134.19759,34.48566],[134.19831,34.48435],[134.19869,34.48389],[134.19895,34.48367],[134.19944,34.48338],[134.20047,34.48299],[134.20079,34.48297],[134.20098,34.48301],[134.20256,34.48352],[134.20378,34.48341],[134.20408,34.48346],[134.20443,34.48366],[134.2049,34.48401],[134.20623,34.48437],[134.2067,34.4844],[134.20715,34.48432],[134.21658,34.48168],[134.21919,34.48135],[134.21968,34.48111],[134.22063,34.48035],[134.22109,34.48018],[134.22162,34.48006],[134.22201,34.48002],[134.22248,34.48013],[134.2234,34.48052],[134.22461,34.48054],[134.22517,34.48064],[134.22618,34.48116],[134.22658,34.48128],[134.22814,34.48117],[134.22867,34.48099],[134.22908,34.48151],[134.22991,34.48224],[134.23121,34.48235],[134.23172,34.48244],[134.23367,34.48312],[134.23293,34.48466],[134.23291,34.48476],[134.23307,34.48537],[134.23304,34.48574],[134.2329,34.48601],[134.23279,34.48645],[134.23302,34.48653],[134.23314,34.48663],[134.23356,34.48721],[134.23441,34.48791],[134.23481,34.48838],[134.2344,34.48891],[134.23405,34.48925],[134.23388,34.48915],[134.23385,34.48918],[134.23378,34.48936],[134.23383,34.48957],[134.23377,34.48966],[134.2337,34.48967],[134.23341,34.48939],[134.23304,34.48914],[134.2323,34.48844],[134.23195,34.48838],[134.23152,34.48841],[134.23111,34.48822],[134.23091,34.48818],[134.23066,34.4882],[134.2303,34.48833],[134.2302,34.4883],[134.22987,34.48793],[134.22967,34.48714],[134.22957,34.48706],[134.22948,34.48704],[134.2291,34.48711],[134.22852,34.48707],[134.22804,34.48713],[134.22691,34.48664],[134.2269,34.4867],[134.22718,34.48701],[134.22716,34.48706],[134.22662,34.48691],[134.22652,34.48696],[134.22687,34.48732],[134.22685,34.48739],[134.22571,34.48691],[134.22565,34.48696],[134.22603,34.4873],[134.22603,34.48738],[134.22596,34.48739],[134.22571,34.48725],[134.22553,34.48721],[134.22509,34.48718],[134.22505,34.48723],[134.22535,34.48739],[134.22573,34.48771],[134.22613,34.4884],[134.2262,34.48898],[134.22627,34.48918],[134.2262,34.48918],[134.22599,34.48892],[134.22561,34.48864],[134.22512,34.48846],[134.22499,34.48842],[134.22467,34.48842],[134.22441,34.48857],[134.22402,34.48831],[134.22382,34.48823],[134.22362,34.48821],[134.22353,34.48832],[134.22369,34.48874],[134.22369,34.48888],[134.22363,34.489],[134.22318,34.48949],[134.22306,34.49007],[134.22318,34.48949],[134.22363,34.489],[134.22369,34.48888],[134.22369,34.48874],[134.22353,34.48832],[134.22362,34.48821],[134.22374,34.48821],[134.22402,34.48831],[134.22441,34.48857],[134.22467,34.48842],[134.22499,34.48842],[134.22512,34.48846],[134.22561,34.48864],[134.22599,34.48892],[134.2262,34.48918],[134.22627,34.48918],[134.2262,34.48898],[134.22613,34.4884],[134.22573,34.48771],[134.22535,34.48739],[134.22505,34.48723],[134.22509,34.48718],[134.22553,34.48721],[134.22571,34.48725],[134.22596,34.48739],[134.22603,34.48738],[134.22603,34.4873],[134.22565,34.48696],[134.22571,34.48691],[134.22685,34.48739],[134.22687,34.48732],[134.22652,34.48696],[134.22662,34.48691],[134.22716,34.48706],[134.22718,34.48701],[134.2269,34.4867],[134.22691,34.48664],[134.22804,34.48713],[134.22852,34.48707],[134.2291,34.48711],[134.22948,34.48704],[134.22957,34.48706],[134.22967,34.48714],[134.22987,34.48793],[134.2302,34.4883],[134.2303,34.48833],[134.23066,34.4882],[134.23091,34.48818],[134.23111,34.48822],[134.23152,34.48841],[134.23195,34.48838],[134.2323,34.48844],[134.23304,34.48914],[134.23341,34.48939],[134.2337,34.48967],[134.23377,34.48966],[134.23383,34.48957],[134.23378,34.48936],[134.23388,34.48915],[134.23462,34.48951],[134.23486,34.4894],[134.235,34.48953],[134.2351,34.48954],[134.23559,34.48949],[134.23604,34.48951],[134.23755,34.4898],[134.23793,34.48979],[134.2405,34.48947],[134.24107,34.48931],[134.24237,34.48851],[134.24155,34.4866],[134.24098,34.48586],[134.24041,34.48538],[134.24063,34.48521],[134.24074,34.48504],[134.24141,34.48327],[134.24168,34.4832],[134.24274,34.48262],[134.24346,34.4818],[134.24393,34.48145],[134.24469,34.48112],[134.2456,34.48088],[134.24613,34.48067],[134.24873,34.47882],[134.24882,34.47901],[134.24879,34.47911],[134.24869,34.47919],[134.24848,34.47924],[134.24812,34.47962],[134.24803,34.47983],[134.24807,34.48003],[134.24867,34.48058],[134.24919,34.48121],[134.24947,34.4812],[134.24958,34.48111],[134.24961,34.48101],[134.24956,34.48091],[134.24913,34.48065],[134.24889,34.48015],[134.24898,34.48002],[134.24915,34.48006],[134.2492,34.48033],[134.24931,34.48049],[134.24997,34.48067],[134.25021,34.48086],[134.25011,34.48154],[134.24992,34.48166],[134.24959,34.48177],[134.24926,34.48172],[134.24918,34.48178],[134.24917,34.48188],[134.24932,34.48197],[134.2495,34.48189],[134.25017,34.48175],[134.25029,34.48164],[134.25051,34.48125],[134.25063,34.4812],[134.25085,34.48127],[134.25147,34.48166],[134.2521,34.48169],[134.25247,34.48176],[134.25261,34.48173],[134.25268,34.48162],[134.25254,34.48138],[134.25257,34.48129],[134.25283,34.48102],[134.2528,34.48076],[134.25331,34.48045],[134.25375,34.48061],[134.25389,34.48059],[134.25399,34.48046],[134.25408,34.48016],[134.25427,34.48003],[134.25439,34.48005],[134.25449,34.48015],[134.25478,34.481],[134.25477,34.48156],[134.25482,34.48169],[134.2556,34.48184],[134.25577,34.48179],[134.25579,34.48168],[134.25548,34.48151],[134.25542,34.48135],[134.25567,34.48106],[134.25611,34.48096],[134.25661,34.4811],[134.25699,34.48088],[134.25725,34.48086],[134.25787,34.48093],[134.25811,34.48103],[134.25824,34.481],[134.2587,34.48067],[134.25917,34.48066],[134.25956,34.48047],[134.25976,34.48056],[134.26001,34.48087],[134.2603,34.48091],[134.26116,34.48129],[134.26185,34.48093],[134.26246,34.48082],[134.26264,34.4807],[134.26276,34.48072],[134.26282,34.48082],[134.26275,34.48093],[134.26242,34.48092],[134.26192,34.4811],[134.26105,34.48175],[134.26076,34.4818],[134.26071,34.48192],[134.26077,34.48201],[134.26093,34.48202],[134.26112,34.48182],[134.26181,34.48147],[134.26216,34.48134],[134.2625,34.48129],[134.26309,34.48132],[134.26369,34.48127],[134.26377,34.48138],[134.26366,34.48149],[134.26315,34.48148],[134.26259,34.48157],[134.26252,34.48167],[134.26259,34.48191],[134.26273,34.48197],[134.26335,34.48169],[134.26356,34.48167],[134.26365,34.4817],[134.26383,34.48181],[134.26465,34.48257],[134.26495,34.48299],[134.26496,34.48313],[134.26483,34.48329],[134.26486,34.48387],[134.26447,34.48396],[134.26441,34.48403],[134.26442,34.4844],[134.26431,34.48484],[134.26447,34.48506],[134.26444,34.48532],[134.26459,34.48571],[134.2645,34.48578],[134.26417,34.48587],[134.26409,34.48596],[134.26445,34.48696],[134.26464,34.48727],[134.26452,34.4876],[134.26454,34.48802],[134.26427,34.48827],[134.26424,34.48835],[134.26438,34.48864],[134.26471,34.48893],[134.26474,34.48913],[134.26433,34.48956],[134.26413,34.48963],[134.26376,34.48966],[134.26366,34.48974],[134.26367,34.48983],[134.26374,34.48989],[134.26386,34.4899],[134.26411,34.48979],[134.2646,34.48972],[134.26475,34.48965],[134.2654,34.48914],[134.26544,34.48885],[134.26537,34.48867],[134.26548,34.48855],[134.26559,34.48856],[134.26568,34.48865],[134.2656,34.48897],[134.2656,34.48949],[134.26544,34.48976],[134.26512,34.48991],[134.26515,34.49006],[134.26531,34.49009],[134.26538,34.49005],[134.2655,34.48986],[134.2661,34.48946],[134.26626,34.4893],[134.26632,34.48912],[134.26628,34.48884],[134.26612,34.48862],[134.26615,34.48851],[134.26628,34.48848],[134.26639,34.48852],[134.26639,34.48874],[134.2666,34.48895],[134.26666,34.48914],[134.26665,34.48956],[134.26651,34.48987],[134.2663,34.49024],[134.26583,34.49088],[134.2655,34.49112],[134.26488,34.49123],[134.26478,34.49133],[134.2648,34.49144],[134.26491,34.49152],[134.26503,34.49154],[134.26566,34.49151],[134.26636,34.49119],[134.26739,34.49102],[134.26748,34.49119],[134.26667,34.49175],[134.26606,34.49229],[134.26594,34.49242],[134.2659,34.49257],[134.26603,34.49269],[134.26621,34.49272],[134.26658,34.49274],[134.26676,34.4927],[134.26684,34.49278],[134.26681,34.49289],[134.26691,34.49294],[134.26828,34.49336],[134.26893,34.49326],[134.26961,34.49331],[134.27055,34.49293],[134.27103,34.49247],[134.27125,34.4924],[134.27203,34.49239],[134.2726,34.49203],[134.27278,34.49202],[134.27406,34.49305],[134.2743,34.49337],[134.27413,34.49359],[134.27433,34.49374]]]},"properties":{"id":"shodo-kankakei-west","name":"寒霞渓ヒルクライム 西ルート（銚子渓・土庄）","group":"寒霞渓 ヒルクライム","source":"OpenStreetMap","distance_km":19.6,"elev_up_m":915,"profile":[[0.0,6],[0.61,8],[1.13,13],[1.54,9],[1.9,7],[2.26,15],[3.56,34],[3.86,12],[4.26,6],[4.76,4],[5.27,22],[5.43,29],[5.8,64],[5.88,76],[6.1,96],[6.26,118],[6.44,105],[6.69,127],[6.86,143],[7.05,168],[7.15,181],[7.4,227],[7.55,244],[7.7,250],[7.86,272],[8.09,271],[8.24,268],[8.4,230],[8.62,191],[8.76,170],[8.87,153],[9.11,131],[9.32,116],[9.52,121],[9.66,100],[9.92,80],[10.03,64],[10.21,55],[10.72,34],[11.3,16],[11.78,25],[12.37,54],[12.49,59],[12.73,97],[12.88,89],[13.03,118],[13.22,115],[13.34,136],[13.51,147],[13.66,165],[13.84,188],[13.93,179],[14.2,222],[14.32,225],[14.53,246],[14.71,257],[14.96,288],[15.08,298],[15.31,301],[15.47,309],[15.64,330],[15.8,329],[16.03,354],[16.22,366],[16.38,390],[16.59,399],[16.76,409],[16.95,430],[17.02,431],[17.22,448],[17.32,455],[17.48,473],[17.63,480],[17.72,491],[17.88,495],[18.12,507],[18.29,526],[18.6,550],[18.71,559],[18.94,578],[19.26,582],[19.57,590],[19.6,589]],"elev_src":"source"}}]}